COSMOS 2242             
1 22626U 93024A   26081.94124140  .00002070  00000+0  17917-3 0  9994
2 22626  82.5153 254.0374 0014917 260.1161  99.8378 14.96602023782372
SL-16 R/B               
1 22803U 93059B   26082.16965776  .00000097  00000+0  71961-4 0  9999
2 22803  70.9929 342.7020 0017734 197.0379 163.0152 14.17235148681446
ARIANE 40 R/B           
1 22830U 93061H   26082.10600244  .00000222  00000+0  97220-4 0  9998
2 22830  98.4892 150.7274 0009734 240.7314 119.2898 14.32867753696024
COSMOS 2278             
1 23087U 94023A   26082.24736264 -.00000233  00000+0 -96987-4 0  9992
2 23087  71.0533 146.7356 0008916 350.9575   9.1385 14.14377541646729
SL-16 R/B               
1 23088U 94023B   26082.21706930  .00000217  00000+0  13683-3 0  9998
2 23088  71.0001  42.4760 0005474 272.6162  87.4334 14.15011419648005
SL-16 R/B               
1 23343U 94074B   26082.11648778  .00000515  00000+0  75612-4 0  9994
2 23343  97.7091 112.3896 0006856 165.2976 249.7752 14.79422951689239
SL-16 R/B               
1 23405U 94077B   26082.12274233  .00000206  00000+0  12972-3 0  9994
2 23405  70.9845 324.2303 0002311 198.8438 161.2599 14.15568042618132
ARIANE 40+ R/B          
1 23561U 95021B   26082.23088366  .00000322  00000+0  11641-3 0  9990
2 23561  98.4474 153.5285 0007970 101.4190 327.2879 14.39781932621197
SL-16 R/B               
1 23705U 95058B   26082.20103903 -.00000116  00000+0 -35201-4 0  9994
2 23705  71.0218 151.8906 0010168 100.7911 259.4358 14.15500741569760
SL-16 R/B               
1 24298U 96051B   26082.19708985  .00000099  00000+0  80122-4 0  9995
2 24298  70.7594 146.6508 0013949 126.6235 233.6170 14.12419385523550
ORBVIEW 2 (SEASTAR)     
1 24883U 97037A   26082.21885027  .00000293  00000+0  11795-3 0  9991
2 24883  98.8591 246.8907 0002659  43.4009 316.7385 14.35504132510417
SL-16 R/B               
1 25400U 98043G   26082.13277930  .00000080  00000+0  52578-4 0  9993
2 25400  98.8278  35.5933 0009506 341.7468  18.3369 14.26052758440903
